COSMOS 1892             
1 18421U 87088A   20204.55853756  .00000331  00000-0  14994-4 0  9997
2 18421  82.4987 238.7971 0013642 308.2427  51.7577 15.17177234789874
SL-14 R/B               
1 18749U 88001B   20204.62583537  .00000059  00000-0  42241-5 0  9995
2 18749  82.5159 324.6779 0018795 177.6598 192.9908 14.83222484737083
COSMOS 1933             
1 18958U 88020A   20204.39601842 -.00000235  00000-0 -19260-4 0  9994
2 18958  82.5295  91.8589 0012489  39.6788 320.5349 15.03741509740337
SL-3 R/B                
1 19046U 88032B   20204.55288803  .00000143  00000-0  14870-4 0  9990
2 19046  97.3987 224.0639 0038171  86.1246 274.4343 15.02714527742237
SL-16 R/B               
1 19120U 88039B   20204.42747986 -.00000050  00000-0 -73852-6 0  9994
2 19120  71.0157  94.6230 0024111 255.1895 104.6558 14.19209042666610
COSMOS 1953             
1 19210U 88050A   20204.46268031 -.00000243  00000-0 -18663-4 0  9991
2 19210  82.5155  15.8437 0013195   8.2437 351.9005 15.05991641726933
SL-8 R/B                
1 19257U 88053B   20204.50513831  .00000037  00000-0  21276-4 0  9994
2 19257  74.0498 296.5345 0021544 267.5686 103.3747 14.37473061681048
COSMOS 1975             
1 19573U 88093A   20204.59623129 -.00000251  00000-0 -19798-4 0  9996
2 19573  82.5213 330.1371 0015284  48.9072 311.3471 15.04901086708791
SL-14 R/B               
1 19574U 88093B   20204.44740476  .00000041  00000-0  20867-5 0  9991
2 19574  82.5327 167.3260 0021327 350.9425 130.9134 14.83332855717146
SL-16 R/B               
1 19650U 88102B   20204.31649914 -.00000002  00000-0  23175-4 0  9990
2 19650  70.9986 156.5992 0016561 262.4267  97.4975 14.15792443635811
INTERCOSMOS 24          
1 20261U 89080A   20204.46461373  .00000030  00000-0  38315-5 0  9996
2 20261  82.6056 357.6228 1202877   7.1311 354.5284 12.56122858407982
SL-14 R/B               
1 20262U 89080C   20204.42413045  .00000052  00000-0  11136-4 0  9991
2 20262  82.5922  51.5224 1236758 197.3575 158.1395 12.48942442403357
DELTA 2 R/B(1)          
1 20303U 89085B   20204.56440948  .00001080  00000-0  36714-4 0  9990
2 20303  35.6258 149.8832 0094103 128.8805 232.0361 15.27446190673971
DELTA 1 R/B             
1 20323U 89089B   20204.38462228  .00000017  00000-0  13159-4 0  9998
2 20323  97.0948 344.6257 0073141 120.5438 240.3004 14.48352686597921
ARIANE 40 R/B           
1 20443U 90005H   20204.44054715  .00000013  00000-0  18845-4 0  9999
2 20443  98.5738 266.2038 0009459 234.8600 125.1700 14.38093330597148
DELTA 2 R/B(1)          
1 20453U 90008B   20204.56922808  .00000296  00000-0  18944-4 0  9996
2 20453  35.6269  49.2367 0281408 238.1633 119.1398 14.85617363616422
COSMOS 2058             
1 20465U 90010A   20204.51715293  .00000203  00000-0  14825-4 0  9997
2 20465  82.4878 239.6023 0017102  83.9130 276.4041 14.98022785633570
SL-14 R/B               
1 20466U 90010B   20204.53304657  .00000052  00000-0  35911-5 0  9990
2 20466  82.5020  33.9446 0019511 219.0220 140.9587 14.81388449644984
SL-14 R/B               
1 20511U 90018B   20204.48242324  .00000044  00000-0  26955-5 0  9994
2 20511  82.5244 340.5244 0017619   8.2514  55.9486 14.80044153618295
HST                     
1 20580U 90037B   20204.09972222  .00000325  00000-0  87436-5 0  9998
2 20580  28.4699  90.5074 0002862 104.8705 127.7125 15.09407798461290
SL-16 R/B               
1 20625U 90046B   20204.50660045  .00000281  00000-0  17058-3 0  9993
2 20625  70.9995 294.6236 0014834 196.4067 163.6578 14.14654996557575
COSMOS 2084             
1 20663U 90055A   20204.57074724 -.00000084  00000-0  97396-5 0  9992
2 20663  62.7954  50.9364 0028678 278.0302  81.7537 14.92097436628598
SL-6 R/B(2)             
1 20666U 90055D   20204.48335219 -.00000118  00000-0  69392-5 0  9997
2 20666  62.7871 327.5728 0049599 349.0266  10.9741 14.92347875630521
SL-8 R/B                
1 20775U 90078B   20204.47267095  .00001242  00000-0  57213-4 0  9994
2 20775  82.9262 197.7533 0574994  86.2381 280.4329 14.34431318510762
SL-8 R/B                
1 21088U 91006B   20204.25985928 -.00000008  00000-0 -23539-4 0  9997
2 21088  82.9413 259.3359 0023282  36.9124  27.2790 13.77149331481005
OKEAN-3                 
1 21397U 91039A   20204.56822264  .00000133  00000-0  10267-4 0  9994
2 21397  82.5231 143.3235 0019236  55.0091 305.2931 14.92939860557503
COSMOS 2151             
1 21422U 91042A   20204.53065327  .00000076  00000-0  49079-5 0  9993
2 21422  82.4994 249.5458 0015684 113.6654 246.6213 14.92141688556112
SL-14 R/B               
1 21423U 91042B   20204.48918936  .00000046  00000-0  30066-5 0  9994
2 21423  82.4952 344.1558 0018571 140.7399 219.5165 14.79794668548848
ERS-1                   
1 21574U 91050A   20204.56155035  .00000008  00000-0  17492-4 0  9997
2 21574  98.5994 157.9363 0032831 180.6840 179.4307 14.37749594520161
ARIANE 40 R/B           
1 21610U 91050F   20204.46502833  .00000005  00000-0  15184-4 0  9992
2 21610  98.4636 273.3487 0004010 139.6140 231.1286 14.40908878523025
INTERCOSMOS 25          
1 21819U 91086A   20204.53080456 -.00000078  00000-0 -19074-4 0  9996
2 21819  82.5928 105.3361 1516674 197.2155 157.1559 12.05148979248515
SL-8 R/B                
1 21876U 92008B   20204.50766187  .00000001  00000-0 -14822-4 0  9994
2 21876  82.9272 356.3637 0036009 115.2177 308.2088 13.75657320426696
SL-8 R/B                
1 21938U 92020B   20204.54787558 -.00000033  00000-0 -50088-4 0  9996
2 21938  82.9285 240.5049 0027804 275.8584 236.9566 13.75284364418792
COSMOS 2219             
1 22219U 92076A   20204.45573623  .00000302  00000-0  18479-3 0  9990
2 22219  71.0610 354.5900 0016672 102.6221 257.6767 14.13644620428088
SL-16 R/B               
1 22220U 92076B   20204.47710184  .00000266  00000-0  15764-3 0  9992
2 22220  70.9985 197.8562 0013517 339.6974 180.1743 14.16457936430630
COSMOS 2221             
1 22236U 92080A   20204.12470422  .00000127  00000-0  11152-4 0  9998
2 22236  82.5071  70.8961 0015980 201.9344 158.1191 14.87934041495473
SL-16 R/B               
1 22285U 92093B   20204.43382524 -.00000301  00000-0 -13072-3 0  9993
2 22285  71.0225 359.1299 0005554 226.3638 133.7024 14.15046037422284
COSMOS 2228             
1 22286U 92094A   20204.47525510  .00000099  00000-0  80759-5 0  9993
2 22286  82.5193  26.8378 0020278 328.6013  31.3992 14.88151916469657
SL-16 R/B               
1 22566U 93016B   20204.46223512 -.00000207  00000-0 -82125-4 0  9996
2 22566  71.0050 212.2642 0011787 222.3560 137.6653 14.14966183411289
COSMOS 2242             
1 22626U 93024A   20204.59089128  .00000114  00000-0  96689-5 0  9995
2 22626  82.5205  54.8711 0018138 328.7250  31.2887 14.88007950474080
SL-16 R/B               
1 22803U 93059B   20204.49123994 -.00000126  00000-0 -38782-4 0  9993
2 22803  70.9902  25.4271 0015122 104.5193 255.7609 14.16822626388268
ARIANE 40 R/B           
1 22830U 93061H   20204.11281862 -.00000009  00000-0  13567-4 0  9997
2 22830  98.7625 253.6247 0010270 215.5596 144.4903 14.31452821399788
COSMOS 2278             
1 23087U 94023A   20204.55362744  .00000103  00000-0  79239-4 0  9990
2 23087  71.0525 154.2898 0010673 283.7599  76.2335 14.13801637354157
SL-16 R/B               
1 23088U 94023B   20204.04867561 -.00000292  00000-0 -12698-3 0  9998
2 23088  70.9988  68.5109 0004191 216.1756 143.9084 14.14687434355202
SL-16 R/B               
1 23343U 94074B   20204.13144976 -.00000001  00000-0  71581-5 0  9991
2 23343  97.9965 256.8210 0007845  47.4208   5.1650 14.76829863383741
SL-16 R/B               
1 23405U 94077B   20204.47304051  .00000020  00000-0  34708-4 0  9991
2 23405  70.9822 356.8308 0001787 352.4016   7.7079 14.15218813325319
ERS-2                   
1 23560U 95021A   20204.44119793  .00000369  00000-0  19401-4 0  9996
2 23560  98.5453   2.7356 0004519  64.1353 296.0346 15.23219477347449
ARIANE 40+ R/B          
1 23561U 95021B   20204.09851917  .00000008  00000-0  17919-4 0  9991
2 23561  98.7215 243.8180 0007634 144.1920 241.4473 14.37975910323557
SL-16 R/B               
1 23705U 95058B   20204.36481438 -.00000129  00000-0 -41838-4 0  9991
2 23705  71.0206 175.7044 0012239   3.1327 356.9870 14.15138997276917
SL-16 R/B               
1 24298U 96051B   20204.42785669 -.00000110  00000-0 -32875-4 0  9994
2 24298  70.8409 196.8008 0017837 292.7811  67.1424 14.12501140231293
ORBVIEW 2 (SEASTAR)     
1 24883U 97037A   20204.29909897  .00000024  00000-0  24558-4 0  9996
2 24883  98.6142 317.4156 0002565  30.3909 329.7423 14.33562339213708
SL-16 R/B               
1 25400U 98043G   20204.52962137 -.00000017  00000-0  10981-4 0  9990
2 25400  98.6078 139.8132 0008987 228.9810 131.0594 14.25457975146249
SL-16 R/B               
1 25407U 98045B   20204.38327878 -.00000186  00000-0 -70324-4 0  9995
2 25407  71.0107 184.2013 0010169 280.0921  79.9055 14.15805030136028
ISS (ZARYA)             
1 25544U 98067A   20204.83099931 -.00000460  00000-0 -17330-6 0  9992
2 25544  51.6426 172.0459 0001242 139.6082 301.6973 15.49515148237545
SL-8 R/B                
1 25723U 99022C   20204.29640132  .00009944  00000-0  68801-4 0  9999
2 25723  48.4079 172.7029 0004324 158.8853 201.2280 15.75118864183476
CZ-4B R/B               
1 25732U 99025C   20204.56743878 -.00000013  00000-0  15454-4 0  9998
2 25732  98.9421 233.5422 0038362 110.0418  41.3554 14.17679141 96796
OKEAN-O                 
1 25860U 99039A   20204.54350858  .00000027  00000-0  11558-4 0  9990
2 25860  98.2125 224.1508 0001863  97.8120 262.3300 14.76669350130699
SL-16 R/B               
1 25861U 99039B   20203.97928344 -.00000002  00000-0  72991-5 0  9991
2 25861  98.2075 206.8159 0016692  50.2286   2.2955 14.78584024132724
DELTA 2 R/B             
1 25876U 99041E   20204.59203304 -.00000161  00000-0  14901-4 0  9993
2 25876  51.7619 171.6278 0531673  86.6023 279.5547 14.04434973 73560
